CUBEBUG-2 (LO-74)
1 39440U 13066AA  26188.29183308  .00002570  00000-0  23991-3 0  9996
2 39440  97.8912 137.3576 0056237 322.3373  37.3914 14.93935374679991
FUNCUBE-1 (AO-73)
1 39444U 13066AE  26187.87556615  .00006051  00000-0  37306-3 0  9991
2 39444  97.8282 159.7358 0037536 134.9216 225.5068 15.09744377682630
UWE-3
1 39446U 13066AG  26188.33361646  .00002099  00000-0  18297-3 0  9999
2 39446  97.8699 144.5465 0047497 252.0164 107.5878 14.97168353680597
UNISAT-6
1 40012U 14033C   26188.37016755  .00002115  00000-0  23037-3 0  9994
2 40012  97.7902 340.7302 0044829   3.7872 356.3675 14.88345132649166
DUCHIFAT-1
1 40021U 14033M   26187.69409460  .00117855  00000-0  10018-2 0  9999
2 40021  98.0433 249.6610 0001149 272.1888  87.9241 15.69242725658806
LILACSAT-2
1 40908U 15049K   26188.58484767  .00013623  00000-0  22646-3 0  9992
2 40908  97.4628 226.2078 0007763 164.5444 195.6047 15.52160922598914
CAS-2T & KS-1Q
1 41847U 16066G   26188.18693954  .00001203  00000-0  17577-3 0  9999
2 41847  98.3815 263.6944 0342626  69.0010 294.7475 14.44757435507681
FOX-1B (AO-91)
1 43017U 17073E   26188.05056824  .00005556  00000-0  24356-3 0  9992
2 43017  97.4678  54.8599 0148160 259.9195  98.5293 15.12990086468395
FUNCUBE-3 (EO-79)/QB50P1
1 40025U 14033R   26187.98593056  .00006736  00000-0  32910-3 0  9991
2 40025  98.0969 200.5237 0009775 149.2946 210.8860 15.18579991656036
FOX-1A (AO-85)
1 40967U 15058D   26188.54145642  .00001843  00000-0  17269-3 0  9995
2 40967  64.7734 215.7243 0131774  48.7119 312.5249 14.91059408116607
DIWATA-2B (PO-101)
1 43678U 18084H   26188.57573698  .00001997  00000-0  16328-3 0  9993
2 43678  98.1217  25.6751 0013076 107.6279 252.6373 15.00543973419271
ESHAIL-2
1 43700U 18090A   26188.57792480  .00000159  00000-0  00000-0 0  9994
2 43700   0.0166 300.3831 0002318 211.6334   7.3926  1.00272567 27883
ITASAT-1
1 43786U 18099AE  26187.71598030  .00004636  00000-0  22248-3 0  9992
2 43786  97.4015 238.8395 0010723 284.8338  75.1709 15.19312324415878
FOX-1CLIFF (AO-95)
1 43770U 18099N   26188.13093529  .00008409  00000-0  31834-3 0  9998
2 43770  97.4372 248.3079 0006930 274.3916  85.6531 15.27157172416263
JY1SAT (JO-97)
1 43803U 18099AX  26186.62217810  .00022572  00000-0  68069-3 0  9995
2 43803  97.4115 249.5264 0005983 188.7802 171.3337 15.34293802416450
UWE-4
1 43880U 18111E   26188.27026786  .00025394  00000-0  49609-3 0  9992
2 43880  97.5838 117.6044 0004892 228.1890 131.8942 15.47445667413882
CAS-6 (TO-108)
1 44881U 19093C   26188.57486262  .00001291  00000-0  15154-3 0  9994
2 44881  97.7521 260.3098 0014267  26.0787 334.1144 14.86556986354444
DOSAAF-85 (RS-44)
1 44909U 19096E   26188.33221742  .00000018  00000-0  20916-4 0  9991
2 44909  82.5237 326.3182 0218596  97.2854 265.3149 12.79748960304927
SALSAT (TUBSAT 22)
1 46495U 20068K   26187.96288697  .00005977  00000-0  20799-3 0  9991
2 46495  97.8858 192.2352 0008388 224.1445 135.9125 15.30092809318384
CAMSAT XW-3 (CAS-9)
1 50466U 21131B   26188.60255579  .00000586  00000-0  19467-3 0  9992
2 50466  98.4982 280.8827 0004984  49.7875 310.3749 14.41378352238056
ROBUSTA 1F (MTCUBE-2)
1 53109U 22080E   26188.26139696 -.00000003  00000-0  00000-0 0  9991
2 53109  70.1426 291.2647 0008969 285.4121  74.5548  6.42583238 93350
UMKA-1 (RS40S)
1 57172U 23091G   26188.55493678  .00004227  00000-0  19299-3 0  9997
2 57172  97.5038 247.1755 0013698  54.2930 305.9578 15.21064138167100
CUBESX-HSE-3 (RS42S)
1 57178U 23091N   26188.55955573  .00009083  00000-0  29831-3 0  9998
2 57178  97.5079 254.4100 0010488  28.8678 331.3142 15.31754019167549
MONITOR-3 (RS58S)
1 57180U 23091Q   26188.56417224  .00007065  00000-0  25880-3 0  9996
2 57180  97.5071 252.1639 0011805  35.8656 324.3374 15.28271235167408
MONITOR-4 (RS57S)
1 57182U 23091S   26188.60756959  .00007037  00000-0  25709-3 0  9993
2 57182  97.5065 252.1799 0011800  36.1351 324.0684 15.28357684167416
MONITOR-2 (RS39S)
1 57184U 23091U   26188.60204533  .00003209  00000-0  15595-3 0  9990
2 57184  97.5060 246.7539 0012100  48.5548 311.6723 15.19108552167057
SVYATOBOR-1 (RS60S)
1 57187U 23091X   26188.57308791  .00005950  00000-0  22728-3 0  9991
2 57187  97.5077 252.5061 0009530  30.8143 329.3653 15.26977602167428
VIZARD-METEO (RS38S)
1 57189U 23091Z   26188.59892789  .00011866  00000-0  33295-3 0  9994
2 57189  97.5078 258.5012 0006410   9.7833 350.3535 15.36706979167823
UTMN-2 (RS27S)
1 57203U 23091AP  26188.56612620  .00008961  00000-0  28717-3 0  9997
2 57203  97.5075 256.0752 0007552  18.0579 342.0930 15.32575036167662
POLYTECH UNIVERSE-3 (RS46S)
1 57191U 23091AB  26188.56062524  .00003667  00000-0  17636-3 0  9991
2 57191  97.5035 246.2170 0016654  62.4488 297.8436 15.19318948167046
